NORAD_CAT_ID,OBJECT_NAME,OBJECT_TYPE,EPOCH,MEAN_MOTION,ECCENTRICITY,INCLINATION,RA_OF_ASC_NODE,ARG_OF_PERICENTER,MEAN_ANOMALY,BSTAR,MEAN_MOTION_DOT,MEAN_MOTION_DDOT,TLE_LINE0,TLE_LINE1,TLE_LINE2,SEMIMAJOR_AXIS,PERIOD,APOGEE,PERIGEE,DECAYED
52376.0,STARLINK-3767,PAYLOAD,2023-03-24 04:15:05,15.08916907,0.0001482,53.2166,4.2205,109.927,250.1882,0.0042751,0.00068557,0.0,0 STARLINK-3767,1 52376U 22045AX  23083.17715143  .00068557  00000-0  42751-2 0  9993,2 52376  53.2166   4.2205 0001482 109.9270 250.1882 15.08916907 52654,6917.645,95.433,540.536,538.485,0.0
52376.0,STARLINK-3767,PAYLOAD,2023-03-24 21:44:19,15.0888007,0.0001735,53.2167,0.9487,88.6875,271.4316,0.0016616,0.00026285,0.0,0 STARLINK-3767,1 52376U 22045AX  23083.90578224  .00026285  00000-0  16616-2 0  9994,2 52376  53.2167   0.9487 0001735  88.6875 271.4316 15.08880070 52766,6917.758,95.435,540.823,538.423,0.0
52376.0,STARLINK-3767,PAYLOAD,2023-03-25 05:41:15,15.0881723,0.0001402,53.2165,359.4647,73.8595,286.2551,-0.0021719,-0.00034666,0.0,0 STARLINK-3767,1 52376U 22045AX  23084.23698737 -.00034666  00000-0 -21719-2 0  9997,2 52376  53.2165 359.4647 0001402  73.8595 286.2551 15.08817230 52819,6917.95,95.439,540.785,538.845,0.0
52376.0,STARLINK-3767,PAYLOAD,2023-03-25 21:35:08,15.08809521,0.0001609,53.2171,356.4915,95.094,265.0236,0.0013391,0.0002107,0.0,0 STARLINK-3767,1 52376U 22045AX  23084.89940475  .00021070  00000-0  13391-2 0  9998,2 52376  53.2171 356.4915 0001609  95.0940 265.0236 15.08809521 52910,6917.974,95.439,540.952,538.725,0.0
52376.0,STARLINK-3767,PAYLOAD,2023-03-26 00:45:55,15.08823493,0.0001598,53.2174,355.897,95.0252,265.0923,0.0023721,0.00037649,0.0,0 STARLINK-3767,1 52376U 22045AX  23085.03188724  .00037649  00000-0  23721-2 0  9993,2 52376  53.2174 355.8970 0001598  95.0252 265.0923 15.08823493 52939,6917.931,95.439,540.901,538.69,0.0
52376.0,STARLINK-3767,PAYLOAD,2023-03-26 21:25:56,15.08848655,0.0001755,53.2181,352.0334,108.6374,251.4809,0.0012753,0.00020071,0.0,0 STARLINK-3767,1 52376U 22045AX  23085.89301111  .00020071  00000-0  12753-2 0  9998,2 52376  53.2181 352.0334 0001755 108.6374 251.4809 15.08848655 53065,6917.854,95.437,540.933,538.505,0.0
52376.0,STARLINK-3767,PAYLOAD,2023-03-27 00:36:42,15.08858235,0.0001775,53.2181,351.4385,108.4462,251.6724,0.0015653,0.00024724,0.0,0 STARLINK-3767,1 52376U 22045AX  23086.02548948  .00024724  00000-0  15653-2 0  9996,2 52376  53.2181 351.4385 0001775 108.4462 251.6724 15.08858235 53087,6917.825,95.436,540.918,538.462,0.0
52376.0,STARLINK-3767,PAYLOAD,2023-03-27 21:16:42,15.08858928,0.0001785,53.2172,347.5697,115.078,245.0397,0.00051156,7.867e-05,0.0,0 STARLINK-3767,1 52376U 22045AX  23086.88660174  .00007867  00000-0  51156-3 0  9994,2 52376  53.2172 347.5697 0001785 115.0780 245.0397 15.08858928 53214,6917.823,95.436,540.922,538.453,0.0
52376.0,STARLINK-3767,PAYLOAD,2023-03-28 03:38:14,15.08870051,0.0001311,53.217,346.3786,96.5831,263.5311,0.00075059,0.00011688,0.0,0 STARLINK-3767,1 52376U 22045AX  23087.15155649  .00011688  00000-0  75059-3 0  9995,2 52376  53.2170 346.3786 0001311  96.5831 263.5311 15.08870051 53259,6917.789,95.436,540.56,538.747,0.0
52376.0,STARLINK-3767,PAYLOAD,2023-03-28 21:07:29,15.08842738,0.0001205,53.2167,343.1091,143.9495,216.1579,0.0002957,4.422e-05,0.0,0 STARLINK-3767,1 52376U 22045AX  23087.88019690  .00004422  00000-0  29570-3 0  9995,2 52376  53.2167 343.1091 0001205 143.9495 216.1579 15.08842738 53367,6917.872,95.437,540.571,538.903,0.0
52376.0,STARLINK-3767,PAYLOAD,2023-03-29 00:18:15,15.08850424,0.0001359,53.217,342.516,105.515,254.5992,0.00078499,0.00012231,0.0,0 STARLINK-3767,1 52376U 22045AX  23088.01267873  .00012231  00000-0  78499-3 0  9990,2 52376  53.2170 342.5160 0001359 105.5150 254.5992 15.08850424 53381,6917.849,95.437,540.654,538.773,0.0
52376.0,STARLINK-3767,PAYLOAD,2023-03-29 01:53:38,15.0885802,0.0001391,53.2174,342.2201,114.0947,246.0191,0.0010996,0.00017264,0.0,0 STARLINK-3767,1 52376U 22045AX  23088.07891731  .00017264  00000-0  10996-2 0  9990,2 52376  53.2174 342.2201 0001391 114.0947 246.0191 15.08858020 53391,6917.825,95.436,540.653,538.728,0.0
52376.0,STARLINK-3767,PAYLOAD,2023-03-29 20:58:16,15.08849162,0.000245,53.2161,338.6464,151.9424,208.1701,0.00069175,0.00010741,0.0,0 STARLINK-3767,1 52376U 22045AX  23088.87379779  .00010741  00000-0  69175-3 0  9998,2 52376  53.2161 338.6464 0002450 151.9424 208.1701 15.08849162 53511,6917.852,95.437,541.412,538.023,0.0
52376.0,STARLINK-3767,PAYLOAD,2023-03-30 01:44:26,15.08842354,0.0001038,53.2166,337.7545,113.8214,246.2887,0.0012064,0.00018965,0.0,0 STARLINK-3767,1 52376U 22045AX  23089.07252334  .00018965  00000-0  12064-2 0  9998,2 52376  53.2166 337.7545 0001038 113.8214 246.2887 15.08842354 53548,6917.873,95.437,540.456,539.02,0.0
52376.0,STARLINK-3767,PAYLOAD,2023-03-31 01:35:13,15.08856461,0.0001361,53.2175,333.2958,78.2162,281.8983,0.00079289,0.00012359,0.0,0 STARLINK-3767,1 52376U 22045AX  23090.06612410  .00012359  00000-0  79289-3 0  9998,2 52376  53.2175 333.2958 0001361  78.2162 281.8983 15.08856461 53694,6917.83,95.437,540.637,538.754,0.0
52376.0,STARLINK-3767,PAYLOAD,2023-03-31 15:53:41,15.08844286,0.000117,53.2171,330.6203,83.437,276.6755,0.00029668,4.437e-05,0.0,0 STARLINK-3767,1 52376U 22045AX  23090.66228641  .00004437  00000-0  29668-3 0  9997,2 52376  53.2171 330.6203 0001170  83.4370 276.6755 15.08844286 53782,6917.867,95.437,540.542,538.923,0.0
52376.0,STARLINK-3767,PAYLOAD,2023-04-01 01:25:59,15.08859478,0.000122,53.2172,328.8357,94.4535,265.6596,0.00063864,9.896e-05,0.0,0 STARLINK-3767,1 52376U 22045AX  23091.05972088  .00009896  00000-0  63864-3 0  9992,2 52376  53.2172 328.8357 0001220  94.4535 265.6596 15.08859478 53840,6917.821,95.436,540.53,538.842,0.0
52376.0,STARLINK-3767,PAYLOAD,2023-04-01 10:58:19,15.08834013,8.25e-05,53.2178,327.0517,106.4534,253.6549,-0.0001159,-2.131e-05,0.0,0 STARLINK-3767,1 52376U 22045AX  23091.45716515 -.00002131  00000-0 -11590-3 0  9993,2 52376  53.2178 327.0517 0000825 106.4534 253.6549 15.08834013 53908,6917.899,95.438,540.334,539.193,0.0
52376.0,STARLINK-3767,PAYLOAD,2023-04-01 22:06:01,15.08829222,8.77e-05,53.2171,324.9718,68.5912,291.5174,0.00010408,1.369e-05,0.0,0 STARLINK-3767,1 52376U 22045AX  23091.92085243  .00001369  00000-0  10408-3 0  9999,2 52376  53.2171 324.9718 0000877  68.5912 291.5174 15.08829222 53973,6917.913,95.438,540.385,539.172,0.0
52376.0,STARLINK-3767,PAYLOAD,2023-04-01 23:41:24,15.08835042,0.0001007,53.2164,324.6745,70.1381,289.972,0.00034687,5.236e-05,0.0,0 STARLINK-3767,1 52376U 22045AX  23091.98709222  .00005236  00000-0  34687-3 0  9997,2 52376  53.2164 324.6745 0001007  70.1381 289.9720 15.08835042 53983,6917.896,95.438,540.457,539.064,0.0
52376.0,STARLINK-3767,PAYLOAD,2023-04-02 15:35:16,15.08843814,0.0001033,53.2162,321.7013,66.1634,293.9467,0.00053501,8.238e-05,0.0,0 STARLINK-3767,1 52376U 22045AX  23092.64949385  .00008238  00000-0  53501-3 0  9998,2 52376  53.2162 321.7013 0001033  66.1634 293.9467 15.08843814 54083,6917.869,95.437,540.448,539.019,0.0
52376.0,STARLINK-3767,PAYLOAD,2023-04-02 21:56:48,15.0885381,0.0001004,53.2162,320.51,73.1117,286.9985,0.00086364,0.00013489,0.0,0 STARLINK-3767,1 52376U 22045AX  23092.91445190  .00013489  00000-0  86364-3 0  9990,2 52376  53.2162 320.5100 0001004  73.1117 286.9985 15.08853810 54128,6917.838,95.437,540.398,539.009,0.0
52376.0,STARLINK-3767,PAYLOAD,2023-04-02 23:32:11,15.08856991,9.96e-05,53.2162,320.2127,72.8381,287.272,0.00092137,0.00014413,0.0,0 STARLINK-3767,1 52376U 22045AX  23092.98069106  .00014413  00000-0  92137-3 0  9999,2 52376  53.2162 320.2127 0000996  72.8381 287.2720 15.08856991 54137,6917.828,95.436,540.382,539.004,0.0
52376.0,STARLINK-3767,PAYLOAD,2023-04-03 18:36:49,15.08848225,0.0001003,53.216,316.6463,59.3674,300.7417,0.00060115,9.294e-05,0.0,0 STARLINK-3767,1 52376U 22045AX  23093.77557253  .00009294  00000-0  60115-3 0  9994,2 52376  53.2160 316.6463 0001003  59.3674 300.7417 15.08848225 54250,6917.855,95.437,540.414,539.026,0.0
52376.0,STARLINK-3767,PAYLOAD,2023-04-03 21:47:35,15.08851639,9.2e-05,53.216,316.0508,76.1662,283.9433,0.00059311,9.167e-05,0.0,0 STARLINK-3767,1 52376U 22045AX  23093.90805066  .00009167  00000-0  59311-3 0  9992,2 52376  53.2160 316.0508 0000920  76.1662 283.9433 15.08851639 54270,6917.845,95.437,540.346,539.073,0.0
52376.0,STARLINK-3767,PAYLOAD,2023-04-05 02:24:31,15.08849223,0.0001041,53.215,310.6976,75.2596,284.8511,0.0002536,3.752e-05,0.0,0 STARLINK-3767,1 52376U 22045AX  23095.10036893  .00003752  00000-0  25360-3 0  9991,2 52376  53.2150 310.6976 0001041  75.2596 284.8511 15.08849223 54452,6917.852,95.437,540.437,538.997,0.0
52376.0,STARLINK-3767,PAYLOAD,2023-04-05 13:32:14,15.08832413,0.0001083,53.2148,308.6164,73.6525,286.4586,-7.0991e-05,-1.417e-05,0.0,0 STARLINK-3767,1 52376U 22045AX  23095.56405682 -.00001417  00000-0 -70991-4 0  9996,2 52376  53.2148 308.6164 0001083  73.6525 286.4586 15.08832413 54526,6917.904,95.438,540.518,539.019,0.0
52376.0,STARLINK-3767,PAYLOAD,2023-04-05 15:07:37,15.08833339,0.0001053,53.215,308.3184,84.9802,275.131,-6.0459e-05,-1.25e-05,0.0,0 STARLINK-3767,1 52376U 22045AX  23095.63029618 -.00001250  00000-0 -60459-4 0  9998,2 52376  53.2150 308.3184 0001053  84.9802 275.1310 15.08833339 54537,6917.901,95.438,540.494,539.037,0.0
52376.0,STARLINK-3767,PAYLOAD,2023-04-05 19:53:46,15.08837815,9.79e-05,53.2152,307.4259,87.8591,272.2513,4.1633e-05,3.75e-06,0.0,0 STARLINK-3767,1 52376U 22045AX  23095.82901473  .00000375  00000-0  41633-4 0  9995,2 52376  53.2152 307.4259 0000979  87.8591 272.2513 15.08837815 54564,6917.887,95.438,540.429,539.075,0.0
52376.0,STARLINK-3767,PAYLOAD,2023-04-06 13:23:01,15.08842285,9.18e-05,53.215,304.1543,91.5026,268.6071,0.00010672,1.411e-05,0.0,0 STARLINK-3767,1 52376U 22045AX  23096.55765455  .00001411  00000-0  10672-3 0  9994,2 52376  53.2150 304.1543 0000918  91.5026 268.6071 15.08842285 54677,6917.873,95.437,540.373,539.103,0.0
